[
    {
        "Altitude(m)": 555783.4977137798,
        "Argument of Periapsis(deg)": 0.006622991110713501,
        "Eccentricity": 0.0,
        "Inclination(deg)": 53.0,
        "Latitude(deg)": 34.24825633908673,
        "Longitude(deg)": 94.90632968870428,
        "Mean Anomaly(deg)": 44.637092867577586,
        "RAAN(deg)": 164.990143368528,
        "Satellite Name": "Starlink Shell 1 728",
        "Satellite Number": 728,
        "Semi-Major Axis(m)": 6931778.249405717,
        "Time(s)": 190
    },
    {
        "Altitude(m)": 555864.6777532469,
        "Argument of Periapsis(deg)": 0.0069715695902247375,
        "Eccentricity": 0.0,
        "Inclination(deg)": 53.0,
        "Latitude(deg)": 34.679176692253165,
        "Longitude(deg)": 95.41802410540295,
        "Mean Anomaly(deg)": 45.263924071134305,
        "RAAN(deg)": 164.98962459845052,
        "Satellite Name": "Starlink Shell 1 728",
        "Satellite Number": 728,
        "Semi-Major Axis(m)": 6931778.249405717,
        "Time(s)": 200
    },
    {
        "Altitude(m)": 555946.3384453747,
        "Argument of Periapsis(deg)": 0.007320148069735974,
        "Eccentricity": 0.0,
        "Inclination(deg)": 53.0,
        "Latitude(deg)": 35.1075318598119,
        "Longitude(deg)": 95.93545443679133,
        "Mean Anomaly(deg)": 45.890755274691,
        "RAAN(deg)": 164.98910582837306,
        "Satellite Name": "Starlink Shell 1 728",
        "Satellite Number": 728,
        "Semi-Major Axis(m)": 6931778.249405717,
        "Time(s)": 210
    },
    {
        "Altitude(m)": 556028.4240681779,
        "Argument of Periapsis(deg)": 0.007668726549247212,
        "Eccentricity": 0.0,
        "Inclination(deg)": 53.0,
        "Latitude(deg)": 35.53325474995487,
        "Longitude(deg)": 96.45873802946285,
        "Mean Anomaly(deg)": 46.51758647824774,
        "RAAN(deg)": 164.98858705829562,
        "Satellite Name": "Starlink Shell 1 728",
        "Satellite Number": 728,
        "Semi-Major Axis(m)": 6931778.249405717,
        "Time(s)": 220
    },
    {
        "Altitude(m)": 556110.8788918202,
        "Argument of Periapsis(deg)": 0.00801730502875845,
        "Eccentricity": 0.0,
        "Inclination(deg)": 53.0,
        "Latitude(deg)": 35.95627672568191,
        "Longitude(deg)": 96.98799297967636,
        "Mean Anomaly(deg)": 47.14441768180444,
        "RAAN(deg)": 164.9880682882181,
        "Satellite Name": "Starlink Shell 1 728",
        "Satellite Number": 728,
        "Semi-Major Axis(m)": 6931778.249405717,
        "Time(s)": 230
    },
    {
        "Altitude(m)": 556193.6472073649,
        "Argument of Periapsis(deg)": 0.008365883508269684,
        "Eccentricity": 0.0,
        "Inclination(deg)": 53.0,
        "Latitude(deg)": 36.37652757343217,
        "Longitude(deg)": 97.52333854419967,
        "Mean Anomaly(deg)": 47.77124888536117,
        "RAAN(deg)": 164.98754951814064,
        "Satellite Name": "Starlink Shell 1 728",
        "Satellite Number": 728,
        "Semi-Major Axis(m)": 6931778.249405717,
        "Time(s)": 240
    },
    {
        "Altitude(m)": 556276.6733554895,
        "Argument of Periapsis(deg)": 0.008714461987780921,
        "Eccentricity": 0.0,
        "Inclination(deg)": 53.0,
        "Latitude(deg)": 36.79393547238587,
        "Longitude(deg)": 98.06489402860892,
        "Mean Anomaly(deg)": 48.39808008891786,
        "RAAN(deg)": 164.98703074806318,
        "Satellite Name": "Starlink Shell 1 728",
        "Satellite Number": 728,
        "Semi-Major Axis(m)": 6931778.249405717,
        "Time(s)": 250
    },
    {
        "Altitude(m)": 556359.9017551123,
        "Argument of Periapsis(deg)": 0.009063040467292158,
        "Eccentricity": 0.0,
        "Inclination(deg)": 53.0,
        "Latitude(deg)": 37.20842696458121,
        "Longitude(deg)": 98.61277917822534,
        "Mean Anomaly(deg)": 49.024911292474584,
        "RAAN(deg)": 164.98651197798569,
        "Satellite Name": "Starlink Shell 1 728",
        "Satellite Number": 728,
        "Semi-Major Axis(m)": 6931778.249405717,
        "Time(s)": 260
    },
    {
        "Altitude(m)": 556443.2769319554,
        "Argument of Periapsis(deg)": 0.009411618946803396,
        "Eccentricity": 0.0,
        "Inclination(deg)": 53.0,
        "Latitude(deg)": 37.61992692600273,
        "Longitude(deg)": 99.16711455822913,
        "Mean Anomaly(deg)": 49.651742496031304,
        "RAAN(deg)": 164.98599320790822,
        "Satellite Name": "Starlink Shell 1 728",
        "Satellite Number": 728,
        "Semi-Major Axis(m)": 6931778.249405717,
        "Time(s)": 270
    },
    {
        "Altitude(m)": 556526.7435469753,
        "Argument of Periapsis(deg)": 0.009760197426314633,
        "Eccentricity": 0.0,
        "Inclination(deg)": 53.0,
        "Latitude(deg)": 38.02835853881093,
        "Longitude(deg)": 99.72802040947931,
        "Mean Anomaly(deg)": 50.27857369958802,
        "RAAN(deg)": 164.98547443783076,
        "Satellite Name": "Starlink Shell 1 728",
        "Satellite Number": 728,
        "Semi-Major Axis(m)": 6931778.249405717,
        "Time(s)": 280
    },
    {
        "Altitude(m)": 556610.2464247333,
        "Argument of Periapsis(deg)": 0.01010877590582587,
        "Eccentricity": 0.0,
        "Inclination(deg)": 53.0,
        "Latitude(deg)": 38.433643264895295,
        "Longitude(deg)": 100.29561700518337,
        "Mean Anomaly(deg)": 50.90540490314472,
        "RAAN(deg)": 164.98495566775327,
        "Satellite Name": "Starlink Shell 1 728",
        "Satellite Number": 728,
        "Semi-Major Axis(m)": 6931778.249405717,
        "Time(s)": 290
    },
    {
        "Altitude(m)": 556693.7305815866,
        "Argument of Periapsis(deg)": 0.010457354385337106,
        "Eccentricity": 0.0,
        "Inclination(deg)": 53.0,
        "Latitude(deg)": 38.83570082094768,
        "Longitude(deg)": 100.87002499492937,
        "Mean Anomaly(deg)": 51.53223610670144,
        "RAAN(deg)": 164.9844368976758,
        "Satellite Name": "Starlink Shell 1 728",
        "Satellite Number": 728,
        "Semi-Major Axis(m)": 6931778.249405717,
        "Time(s)": 300
    },
    {
        "Altitude(m)": 556777.1412537728,
        "Argument of Periapsis(deg)": 0.010805932864848343,
        "Eccentricity": 0.0,
        "Inclination(deg)": 53.0,
        "Latitude(deg)": 39.23444915526687,
        "Longitude(deg)": 101.4513642225885,
        "Mean Anomaly(deg)": 52.159067310258166,
        "RAAN(deg)": 164.98391812759834,
        "Satellite Name": "Starlink Shell 1 728",
        "Satellite Number": 728,
        "Semi-Major Axis(m)": 6931778.249405717,
        "Time(s)": 310
    },
    {
        "Altitude(m)": 556860.4239253373,
        "Argument of Periapsis(deg)": 0.01115451134435958,
        "Eccentricity": 0.0,
        "Inclination(deg)": 53.0,
        "Latitude(deg)": 39.62980442652023,
        "Longitude(deg)": 102.03975404322432,
        "Mean Anomaly(deg)": 52.7858985138149,
        "RAAN(deg)": 164.98339935752085,
        "Satellite Name": "Starlink Shell 1 728",
        "Satellite Number": 728,
        "Semi-Major Axis(m)": 6931778.249405717,
        "Time(s)": 320
    },
    {
        "Altitude(m)": 556943.52435588,
        "Argument of Periapsis(deg)": 0.011503089823870818,
        "Eccentricity": 0.0,
        "Inclination(deg)": 53.0,
        "Latitude(deg)": 40.02168098470331,
        "Longitude(deg)": 102.63531362552446,
        "Mean Anomaly(deg)": 53.412729717371604,
        "RAAN(deg)": 164.9828805874434,
        "Satellite Name": "Starlink Shell 1 728",
        "Satellite Number": 728,
        "Semi-Major Axis(m)": 6931778.249405717,
        "Time(s)": 330
    },
    {
        "Altitude(m)": 557026.3886081497,
        "Argument of Periapsis(deg)": 0.011851668303382053,
        "Eccentricity": 0.0,
        "Inclination(deg)": 53.0,
        "Latitude(deg)": 40.40999135455489,
        "Longitude(deg)": 103.23816072628067,
        "Mean Anomaly(deg)": 54.0395609209283,
        "RAAN(deg)": 164.98236181736593,
        "Satellite Name": "Starlink Shell 1 728",
        "Satellite Number": 728,
        "Semi-Major Axis(m)": 6931778.249405717,
        "Time(s)": 340
    },
    {
        "Altitude(m)": 557108.9630754176,
        "Argument of Periapsis(deg)": 0.012200246782893292,
        "Eccentricity": 0.0,
        "Inclination(deg)": 53.0,
        "Latitude(deg)": 40.79464622169948,
        "Longitude(deg)": 103.84841196208856,
        "Mean Anomaly(deg)": 54.666392124485014,
        "RAAN(deg)": 164.98184304728844,
        "Satellite Name": "Starlink Shell 1 728",
        "Satellite Number": 728,
        "Semi-Major Axis(m)": 6931778.249405717,
        "Time(s)": 350
    },
    {
        "Altitude(m)": 557191.1945086722,
        "Argument of Periapsis(deg)": 0.012548825262404526,
        "Eccentricity": 0.0,
        "Inclination(deg)": 53.0,
        "Latitude(deg)": 41.17555442180591,
        "Longitude(deg)": 104.46618306483428,
        "Mean Anomaly(deg)": 55.29322332804171,
        "RAAN(deg)": 164.98132427721097,
        "Satellite Name": "Starlink Shell 1 728",
        "Satellite Number": 728,
        "Semi-Major Axis(m)": 6931778.249405717,
        "Time(s)": 360
    },
    {
        "Altitude(m)": 557273.0300435621,
        "Argument of Periapsis(deg)": 0.012897403741915765,
        "Eccentricity": 0.0,
        "Inclination(deg)": 53.0,
        "Latitude(deg)": 41.552622933068285,
        "Longitude(deg)": 105.09158760756877,
        "Mean Anomaly(deg)": 55.92005453159848,
        "RAAN(deg)": 164.9808055071335,
        "Satellite Name": "Starlink Shell 1 728",
        "Satellite Number": 728,
        "Semi-Major Axis(m)": 6931778.249405717,
        "Time(s)": 370
    }
]